[{"OBJECT_NAME":"JILIN-1 05","OBJECT_ID":"2017-074B","EPOCH":"2026-03-09T21:56:30.612480","MEAN_MOTION":15.3245271,"ECCENTRICITY":0.00045948,"INCLINATION":97.4781,"RA_OF_ASC_NODE":173.8936,"ARG_OF_PERICENTER":206.4038,"MEAN_ANOMALY":153.6971,"EPHEMERIS_TYPE":0,"CLASSIFICATION_TYPE":"U","NORAD_CAT_ID":43023,"ELEMENT_SET_NO":999,"REV_AT_EPOCH":45879,"BSTAR":0.00026108793,"MEAN_MOTION_DOT":8.104e-5,"MEAN_MOTION_DDOT":0},{"OBJECT_NAME":"STARLINK-34481","OBJECT_ID":"2025-167AC","EPOCH":"2026-03-09T07:16:56.944704","MEAN_MOTION":15.30197964,"ECCENTRICITY":0.0001182,"INCLINATION":53.1604,"RA_OF_ASC_NODE":28.2391,"ARG_OF_PERICENTER":67.636,"MEAN_ANOMALY":292.4766,"EPHEMERIS_TYPE":0,"CLASSIFICATION_TYPE":"U","NORAD_CAT_ID":65104,"ELEMENT_SET_NO":999,"REV_AT_EPOCH":3342,"BSTAR":0.001586126,"MEAN_MOTION_DOT":0.00046911,"MEAN_MOTION_DDOT":0}]
